[{"OBJECT_NAME":"YAOGAN-28","OBJECT_ID":"2015-064A","EPOCH":"2026-03-09T23:07:10.370208","MEAN_MOTION":15.26008,"ECCENTRICITY":0.00111911,"INCLINATION":97.2901,"RA_OF_ASC_NODE":209.4389,"ARG_OF_PERICENTER":175.4532,"MEAN_ANOMALY":184.6811,"EPHEMERIS_TYPE":0,"CLASSIFICATION_TYPE":"U","NORAD_CAT_ID":41026,"ELEMENT_SET_NO":999,"REV_AT_EPOCH":57554,"BSTAR":0.00039691695,"MEAN_MOTION_DOT":0.00010159,"MEAN_MOTION_DDOT":0},{"OBJECT_NAME":"STARLINK-32799","OBJECT_ID":"2025-019U","EPOCH":"2026-03-09T10:23:40.764480","MEAN_MOTION":15.27563236,"ECCENTRICITY":9.76e-5,"INCLINATION":42.9994,"RA_OF_ASC_NODE":90.2596,"ARG_OF_PERICENTER":259.5578,"MEAN_ANOMALY":100.5163,"EPHEMERIS_TYPE":0,"CLASSIFICATION_TYPE":"U","NORAD_CAT_ID":62847,"ELEMENT_SET_NO":999,"REV_AT_EPOCH":6221,"BSTAR":0.00079186769,"MEAN_MOTION_DOT":0.00021581,"MEAN_MOTION_DDOT":0}]
